[{"OBJECT_NAME":"STARLINK-33729","OBJECT_ID":"2025-083P","EPOCH":"2026-03-09T04:05:31.867008","MEAN_MOTION":15.2759346,"ECCENTRICITY":9.936e-5,"INCLINATION":43.0024,"RA_OF_ASC_NODE":8.4706,"ARG_OF_PERICENTER":267.3311,"MEAN_ANOMALY":92.7427,"EPHEMERIS_TYPE":0,"CLASSIFICATION_TYPE":"U","NORAD_CAT_ID":63647,"ELEMENT_SET_NO":999,"REV_AT_EPOCH":4998,"BSTAR":0.0013893897,"MEAN_MOTION_DOT":0.00038185,"MEAN_MOTION_DDOT":0},{"OBJECT_NAME":"SIMSAT 1","OBJECT_ID":"2000-026A","EPOCH":"2026-03-09T17:22:54.646176","MEAN_MOTION":15.27666538,"ECCENTRICITY":0.00084816,"INCLINATION":86.3501,"RA_OF_ASC_NODE":180.5413,"ARG_OF_PERICENTER":14.8337,"MEAN_ANOMALY":345.3157,"EPHEMERIS_TYPE":0,"CLASSIFICATION_TYPE":"U","NORAD_CAT_ID":26365,"ELEMENT_SET_NO":999,"REV_AT_EPOCH":42720,"BSTAR":0.00013499313,"MEAN_MOTION_DOT":3.69e-5,"MEAN_MOTION_DDOT":0}]
